{
  "type": "FeatureCollection",
  "features": [
    {
      "type": "Feature",
      "properties": {
        "norad_id": 55268,
        "name": "GPS BIII-6  (PRN 28)",
        "group": "gnss",
        "lat": 20.86225205105275,
        "lon": -39.49206653856356,
        "alt_km": 20189.26881218248,
        "timestamp": "2025-12-10T04:57:29.861977+00:00",
        "meta_object_name": "GPS BIII-6  (PRN 28)",
        "meta_object_id": "2023-009A",
        "meta_epoch": "2025-12-08T05:52:26.989248",
        "meta_mean_motion": 2.00555991,
        "meta_eccentricity": 0.0003615,
        "meta_inclination": 55.1046,
        "meta_ra_of_asc_node": 156.0217,
        "meta_arg_of_pericenter": 356.7859,
        "meta_mean_anomaly": 180.9144,
        "meta_ephemeris_type": 0,
        "meta_classification_type": "U",
        "meta_norad_cat_id": 55268,
        "meta_element_set_no": 999,
        "meta_rev_at_epoch": 2141,
        "meta_bstar": 0,
        "meta_mean_motion_dot": 5.9e-07,
        "meta_mean_motion_ddot": 0,
        "tle_line1": "1 55268U 23009A   25342.24475682  .00000059  00000+0  00000+0 0  9996",
        "tle_line2": "2 55268  55.1046 156.0217 0003615 356.7859 180.9144  2.00555991 21410"
      },
      "geometry": {
        "type": "Point",
        "coordinates": [
          -39.49206653856356,
          20.86225205105275
        ]
      }
    },
    {
      "type": "Feature",
      "properties": {
        "norad_id": 56564,
        "name": "BEIDOU-3 G4 (C62)",
        "group": "gnss",
        "lat": 0.1597201693040348,
        "lon": -46.35625393110464,
        "alt_km": 35795.355307053214,
        "timestamp": "2025-12-10T04:57:29.861991+00:00",
        "meta_object_name": "BEIDOU-3 G4 (C62)",
        "meta_object_id": "2023-066A",
        "meta_epoch": "2025-12-09T19:28:14.509920",
        "meta_mean_motion": 1.00271293,
        "meta_eccentricity": 0.0002997,
        "meta_inclination": 0.8211,
        "meta_ra_of_asc_node": 301.8358,
        "meta_arg_of_pericenter": 235.0993,
        "meta_mean_anomaly": 353.9886,
        "meta_ephemeris_type": 0,
        "meta_classification_type": "U",
        "meta_norad_cat_id": 56564,
        "meta_element_set_no": 999,
        "meta_rev_at_epoch": 949,
        "meta_bstar": 0,
        "meta_mean_motion_dot": -1.08e-06,
        "meta_mean_motion_ddot": 0,
        "tle_line1": "1 56564U 23066A   25343.81127905 -.00000108  00000+0  00000+0 0  9991",
        "tle_line2": "2 56564   0.8211 301.8358 0002997 235.0993 353.9886  1.00271293  9495"
      },
      "geometry": {
        "type": "Point",
        "coordinates": [
          -46.35625393110464,
          0.1597201693040348
        ]
      }
    },
    {
      "type": "Feature",
      "properties": {
        "norad_id": 56759,
        "name": "NVS-01 (IRNSS-1J)",
        "group": "gnss",
        "lat": 1.346931551282831,
        "lon": -77.0227244772443,
        "alt_km": 35754.208979935276,
        "timestamp": "2025-12-10T04:57:29.862005+00:00",
        "meta_object_name": "NVS-01 (IRNSS-1J)",
        "meta_object_id": "2023-076A",
        "meta_epoch": "2025-12-09T14:54:38.529792",
        "meta_mean_motion": 1.00264712,
        "meta_eccentricity": 0.0008645,
        "meta_inclination": 2.6256,
        "meta_ra_of_asc_node": 251.712,
        "meta_arg_of_pericenter": 8.5657,
        "meta_mean_anomaly": 171.4195,
        "meta_ephemeris_type": 0,
        "meta_classification_type": "U",
        "meta_norad_cat_id": 56759,
        "meta_element_set_no": 999,
        "meta_rev_at_epoch": 921,
        "meta_bstar": 0,
        "meta_mean_motion_dot": -3.34e-06,
        "meta_mean_motion_ddot": 0,
        "tle_line1": "1 56759U 23076A   25343.62127928 -.00000334  00000+0  00000+0 0  9993",
        "tle_line2": "2 56759   2.6256 251.7120 0008645   8.5657 171.4195  1.00264712  9210"
      },
      "geometry": {
        "type": "Point",
        "coordinates": [
          -77.0227244772443,
          1.346931551282831
        ]
      }
    },
    {
      "type": "Feature",
      "properties": {
        "norad_id": 57517,
        "name": "COSMOS 2569 (703K)",
        "group": "gnss",
        "lat": 43.15385650806579,
        "lon": 104.66175049040585,
        "alt_km": 19138.756192411256,
        "timestamp": "2025-12-10T04:57:29.862017+00:00",
        "meta_object_name": "COSMOS 2569 (703K)",
        "meta_object_id": "2023-114A",
        "meta_epoch": "2025-12-09T04:54:16.689312",
        "meta_mean_motion": 2.13103889,
        "meta_eccentricity": 0.0010394,
        "meta_inclination": 65.1923,
        "meta_ra_of_asc_node": 79.033,
        "meta_arg_of_pericenter": 287.0321,
        "meta_mean_anomaly": 72.8717,
        "meta_ephemeris_type": 0,
        "meta_classification_type": "U",
        "meta_norad_cat_id": 57517,
        "meta_element_set_no": 999,
        "meta_rev_at_epoch": 1821,
        "meta_bstar": 0,
        "meta_mean_motion_dot": -1.4e-07,
        "meta_mean_motion_ddot": 0,
        "tle_line1": "1 57517U 23114A   25343.20435983 -.00000014  00000+0  00000+0 0  9991",
        "tle_line2": "2 57517  65.1923  79.0330 0010394 287.0321  72.8717  2.13103889 18214"
      },
      "geometry": {
        "type": "Point",
        "coordinates": [
          104.66175049040585,
          43.15385650806579
        ]
      }
    },
    {
      "type": "Feature",
      "properties": {
        "norad_id": 58654,
        "name": "BEIDOU-3 M28 (C50)",
        "group": "gnss",
        "lat": -43.202799024418965,
        "lon": 28.67849595182462,
        "alt_km": 21528.016554628215,
        "timestamp": "2025-12-10T04:57:29.862028+00:00",
        "meta_object_name": "BEIDOU-3 M28 (C50)",
        "meta_object_id": "2023-207A",
        "meta_epoch": "2025-12-09T05:11:28.664736",
        "meta_mean_motion": 1.86229641,
        "meta_eccentricity": 0.0002291,
        "meta_inclination": 55.5815,
        "meta_ra_of_asc_node": 68.7207,
        "meta_arg_of_pericenter": 268.7348,
        "meta_mean_anomaly": 91.2612,
        "meta_ephemeris_type": 0,
        "meta_classification_type": "U",
        "meta_norad_cat_id": 58654,
        "meta_element_set_no": 999,
        "meta_rev_at_epoch": 1330,
        "meta_bstar": 0,
        "meta_mean_motion_dot": -4.9e-07,
        "meta_mean_motion_ddot": 0,
        "tle_line1": "1 58654U 23207A   25343.21630399 -.00000049  00000+0  00000+0 0  9994",
        "tle_line2": "2 58654  55.5815  68.7207 0002291 268.7348  91.2612  1.86229641 13308"
      },
      "geometry": {
        "type": "Point",
        "coordinates": [
          28.67849595182462,
          -43.202799024418965
        ]
      }
    },
    {
      "type": "Feature",
      "properties": {
        "norad_id": 58655,
        "name": "BEIDOU-3 M26 (C48)",
        "group": "gnss",
        "lat": 54.24377111493393,
        "lon": 140.6330871496002,
        "alt_km": 21532.021335648467,
        "timestamp": "2025-12-10T04:57:29.862040+00:00",
        "meta_object_name": "BEIDOU-3 M26 (C48)",
        "meta_object_id": "2023-207B",
        "meta_epoch": "2025-12-09T13:13:20.106624",
        "meta_mean_motion": 1.86231165,
        "meta_eccentricity": 0.00037,
        "meta_inclination": 55.5839,
        "meta_ra_of_asc_node": 68.6957,
        "meta_arg_of_pericenter": 254.5617,
        "meta_mean_anomaly": 105.42,
        "meta_ephemeris_type": 0,
        "meta_classification_type": "U",
        "meta_norad_cat_id": 58655,
        "meta_element_set_no": 999,
        "meta_rev_at_epoch": 1329,
        "meta_bstar": 0,
        "meta_mean_motion_dot": -5.1e-07,
        "meta_mean_motion_ddot": 0,
        "tle_line1": "1 58655U 23207B   25343.55092716 -.00000051  00000+0  00000+0 0  9990",
        "tle_line2": "2 58655  55.5839  68.6957 0003700 254.5617 105.4200  1.86231165 13297"
      },
      "geometry": {
        "type": "Point",
        "coordinates": [
          140.6330871496002,
          54.24377111493393
        ]
      }
    },
    {
      "type": "Feature",
      "properties": {
        "norad_id": 59598,
        "name": "GSAT0225 (GALILEO 29)",
        "group": "gnss",
        "lat": 13.443714725258982,
        "lon": -83.27682336455213,
        "alt_km": 23214.631981777773,
        "timestamp": "2025-12-10T04:57:29.862053+00:00",
        "meta_object_name": "GSAT0225 (GALILEO 29)",
        "meta_object_id": "2024-079A",
        "meta_epoch": "2025-12-07T13:01:48.128160",
        "meta_mean_motion": 1.70474573,
        "meta_eccentricity": 0.0002046,
        "meta_inclination": 54.9986,
        "meta_ra_of_asc_node": 106.4402,
        "meta_arg_of_pericenter": 173.6326,
        "meta_mean_anomaly": 155.0404,
        "meta_ephemeris_type": 0,
        "meta_classification_type": "U",
        "meta_norad_cat_id": 59598,
        "meta_element_set_no": 999,
        "meta_rev_at_epoch": 1004,
        "meta_bstar": 0,
        "meta_mean_motion_dot": 7e-08,
        "meta_mean_motion_ddot": 0,
        "tle_line1": "1 59598U 24079A   25341.54291815  .00000007  00000+0  00000+0 0  9993",
        "tle_line2": "2 59598  54.9986 106.4402 0002046 173.6326 155.0404  1.70474573 10048"
      },
      "geometry": {
        "type": "Point",
        "coordinates": [
          -83.27682336455213,
          13.443714725258982
        ]
      }
    }
  ]
}